OBJECT_NAME,OBJECT_ID,EPOCH,MEAN_MOTION,ECCENTRICITY,INCLINATION,RA_OF_ASC_NODE,ARG_OF_PERICENTER,MEAN_ANOMALY,EPHEMERIS_TYPE,CLASSIFICATION_TYPE,NORAD_CAT_ID,ELEMENT_SET_NO,REV_AT_EPOCH,BSTAR,MEAN_MOTION_DOT,MEAN_MOTION_DDOT
ONEWEB-0560,2023-004F,2026-06-16T23:58:01.619040,13.18686962,.0001626,87.9162,335.4961,99.7245,260.4071,0,U,55145,999,16968,-.10497E-3,-.28E-6,0
ONEWEB-0565,2023-004G,2026-06-16T23:48:19.166400,13.18685736,.0002065,87.9152,335.5254,104.1902,255.9460,0,U,55146,999,16967,-.59012E-4,-.1E-6,0
ONEWEB-0567,2023-004H,2026-06-16T23:38:36.667104,13.18686062,.0001917,87.9159,335.5109,104.5268,255.6077,0,U,55147,999,16967,.43297E-6,.13E-6,0
ONEWEB-0569,2023-004J,2026-06-17T03:51:05.353632,13.13470220,.0001664,87.8961,320.2247,126.3458,233.7825,0,U,55148,999,17017,-.12691E-3,-.34E-6,0
ONEWEB-0570,2023-004K,2026-06-16T23:26:27.392352,13.18684997,.0002256,87.9158,335.5104,94.5582,265.5807,0,U,55149,999,16966,-.14959E-3,-.46E-6,0
ONEWEB-0571,2023-004L,2026-06-16T23:16:44.930208,13.18687941,.0002294,87.9159,335.5111,126.6699,233.4644,0,U,55150,999,16967,-.1901E-4,.5E-7,0
ONEWEB-0572,2023-004M,2026-06-17T01:31:45.228288,13.17648633,.0001961,87.9130,5.8900,94.1650,265.9706,0,U,55151,999,16746,.87866E-4,.47E-6,0
ONEWEB-0573,2023-004N,2026-06-17T04:34:49.338048,13.18686133,.0002255,87.9161,335.4688,115.9809,244.1555,0,U,55152,999,16969,.13012E-3,.64E-6,0
ONEWEB-0588,2023-004P,2026-06-17T04:25:06.682368,13.18685190,.0002381,87.9159,335.4700,96.7140,263.4264,0,U,55153,999,16969,.2732E-4,.24E-6,0
ONEWEB-0598,2023-004Q,2026-06-17T02:00:53.259264,13.11416983,.0001697,87.8883,21.0895,109.3165,250.8147,0,U,55154,999,16588,-.17533E-2,-.609E-5,0
ONEWEB-0599,2023-004R,2026-06-17T02:25:12.997632,13.17649153,.0001612,87.9132,5.8811,89.3260,270.8056,0,U,55155,999,16747,.2841E-4,.24E-6,0
ONEWEB-0614,2023-004S,2026-06-17T01:53:33.547200,13.11415560,.0002013,87.8884,21.0990,82.2506,277.8851,0,U,55156,999,16582,-.13826E-2,-.477E-5,0
ONEWEB-0616,2023-004T,2026-06-17T01:36:37.432224,13.17648927,.0000968,87.9133,5.8916,77.2462,282.8778,0,U,55157,999,16768,-.12013E-3,-.34E-6,0
ONEWEB-0617,2023-004U,2026-06-17T01:36:29.301120,13.11414174,.0002243,87.8889,21.0924,84.8412,275.2972,0,U,55158,999,16584,-.52383E-3,-.173E-5,0
ONEWEB-0618,2023-004V,2026-06-17T01:24:29.047392,15.13136507,.0009756,86.9087,177.6868,301.3156,58.7128,0,U,55159,999,18224,.16279E-3,.2919E-4,0
ONEWEB-0619,2023-004W,2026-06-17T00:33:26.849952,13.17649106,.0001936,87.9144,5.8808,75.1798,284.9547,0,U,55160,999,16757,-.1167E-3,-.32E-6,0
ONEWEB-0620,2023-004X,2026-06-17T01:29:08.850336,13.11413329,.0001879,87.8884,21.1021,93.9805,266.1538,0,U,55161,999,16581,.69169E-4,.37E-6,0
ONEWEB-0621,2023-004Y,2026-06-17T02:08:12.632640,13.11417625,.0002004,87.8895,21.0855,81.0258,279.1097,0,U,55162,999,16579,-.14531E-2,-.502E-5,0
ONEWEB-0622,2023-004Z,2026-06-17T02:15:32.596992,13.11418984,.0002544,87.8895,21.0870,88.4620,271.6799,0,U,55163,999,16578,-.86207E-3,-.293E-5,0
ONEWEB-0623,2023-004AA,2026-06-17T02:15:29.482272,13.17650543,.0002515,87.9130,5.8972,77.0191,283.1222,0,U,55164,999,16757,.1878E-3,.86E-6,0
ONEWEB-0624,2023-004AB,2026-06-16T23:11:25.675296,13.12927784,.0001884,87.8945,350.6291,88.3345,271.8000,0,U,55165,999,16804,.84224E-3,.318E-5,0
ONEWEB-0625,2023-004AC,2026-06-17T02:00:55.535904,13.17649327,.0001697,87.9132,5.8949,85.3100,274.8225,0,U,55166,999,16756,-.85717E-4,-.2E-6,0
ONEWEB-0626,2023-004AD,2026-06-17T01:46:20.875008,13.17649769,.0001891,87.9130,5.8965,101.7819,258.3525,0,U,55167,999,16756,.4428E-4,.3E-6,0
ONEWEB-0627,2023-004AE,2026-06-17T01:29:19.475808,13.17648184,.0002296,87.9130,5.8993,80.7913,279.3478,0,U,55168,999,16756,.21813E-4,.21E-6,0
ONEWEB-0628,2023-004AF,2026-06-17T00:34:19.699104,13.12445463,.000235,87.8947,350.6854,77.7901,282.3491,0,U,55169,999,16801,.4754E-3,.184E-5,0
ONEWEB-0629,2023-004AG,2026-06-17T00:54:04.923936,13.17647905,.0001895,87.9131,5.9002,77.9663,282.1681,0,U,55170,999,16756,.67087E-4,.39E-6,0
ONEWEB-0631,2023-004AH,2026-06-17T04:15:23.878944,13.18685495,.0002257,87.9169,335.4372,102.1765,257.9620,0,U,55171,999,16967,.27048E-4,.24E-6,0
ONEWEB-0709,2023-004AJ,2026-06-17T01:14:31.327008,13.11415036,.0001759,87.8882,21.1063,114.1540,245.9772,0,U,55172,999,16585,.12392E-2,.452E-5,0
ONEWEB-0710,2023-004AK,2026-06-17T01:14:44.705184,13.17649674,.0002002,87.9130,5.8927,87.3055,272.8306,0,U,55173,999,16756,.61553E-4,.37E-6,0
ONEWEB-0711,2023-004AL,2026-06-17T02:22:52.695264,13.11420753,.0002544,87.8887,21.0842,81.1939,278.9477,0,U,55174,999,16582,-.38909E-4,-.1E-7,0
ONEWEB-0713,2023-004AM,2026-06-17T00:59:53.033856,13.11416861,.0002189,87.8888,21.0973,83.1844,276.9533,0,U,55175,999,16580,.16747E-2,.606E-5,0
