ONEWEB-0560             
1 55145U 23004F   26167.99862985 -.00000028  00000+0 -10497-3 0  9992
2 55145  87.9162 335.4961 0001626  99.7245 260.4071 13.18686962169687
ONEWEB-0565             
1 55146U 23004G   26167.99188850 -.00000010  00000+0 -59012-4 0  9993
2 55146  87.9152 335.5254 0002065 104.1902 255.9460 13.18685736169670
ONEWEB-0567             
1 55147U 23004H   26167.98514661  .00000013  00000+0  43297-6 0  9997
2 55147  87.9159 335.5109 0001917 104.5268 255.6077 13.18686062169675
ONEWEB-0569             
1 55148U 23004J   26168.16047863 -.00000034  00000+0 -12691-3 0  9990
2 55148  87.8961 320.2247 0001664 126.3458 233.7825 13.13470220170179
ONEWEB-0570             
1 55149U 23004K   26167.97670593 -.00000046  00000+0 -14959-3 0  9993
2 55149  87.9158 335.5104 0002256  94.5582 265.5807 13.18684997169660
ONEWEB-0571             
1 55150U 23004L   26167.96996447  .00000005  00000+0 -19010-4 0  9991
2 55150  87.9159 335.5111 0002294 126.6699 233.4644 13.18687941169675
ONEWEB-0572             
1 55151U 23004M   26168.06371792  .00000047  00000+0  87866-4 0  9993
2 55151  87.9130   5.8900 0001961  94.1650 265.9706 13.17648633167462
ONEWEB-0573             
1 55152U 23004N   26168.19084882  .00000064  00000+0  13012-3 0  9999
2 55152  87.9161 335.4688 0002255 115.9809 244.1555 13.18686133169693
ONEWEB-0588             
1 55153U 23004P   26168.18410512  .00000024  00000+0  27320-4 0  9996
2 55153  87.9159 335.4700 0002381  96.7140 263.4264 13.18685190169693
ONEWEB-0598             
1 55154U 23004Q   26168.08394976 -.00000609  00000+0 -17533-2 0  9995
2 55154  87.8883  21.0895 0001697 109.3165 250.8147 13.11416983165889
ONEWEB-0599             
1 55155U 23004R   26168.10084488  .00000024  00000+0  28410-4 0  9990
2 55155  87.9132   5.8811 0001612  89.3260 270.8056 13.17649153167477
ONEWEB-0614             
1 55156U 23004S   26168.07886050 -.00000477  00000+0 -13826-2 0  9999
2 55156  87.8884  21.0990 0002013  82.2506 277.8851 13.11415560165824
ONEWEB-0616             
1 55157U 23004T   26168.06709991 -.00000034  00000+0 -12013-3 0  9994
2 55157  87.9133   5.8916 0000968  77.2462 282.8778 13.17648927167684
ONEWEB-0617             
1 55158U 23004U   26168.06700580 -.00000173  00000+0 -52383-3 0  9998
2 55158  87.8889  21.0924 0002243  84.8412 275.2972 13.11414174165845
ONEWEB-0618             
1 55159U 23004V   26168.05866953  .00002919  00000+0  16279-3 0  9997
2 55159  86.9087 177.6868 0009756 301.3156  58.7128 15.13136507182244
ONEWEB-0619             
1 55160U 23004W   26168.02322743 -.00000032  00000+0 -11670-3 0  9996
2 55160  87.9144   5.8808 0001936  75.1798 284.9547 13.17649106167570
ONEWEB-0620             
1 55161U 23004X   26168.06190799  .00000037  00000+0  69169-4 0  9995
2 55161  87.8884  21.1021 0001879  93.9805 266.1538 13.11413329165819
ONEWEB-0621             
1 55162U 23004Y   26168.08903510 -.00000502  00000+0 -14531-2 0  9991
2 55162  87.8895  21.0855 0002004  81.0258 279.1097 13.11417625165791
ONEWEB-0622             
1 55163U 23004Z   26168.09412728 -.00000293  00000+0 -86207-3 0  9996
2 55163  87.8895  21.0870 0002544  88.4620 271.6799 13.11418984165786
ONEWEB-0623             
1 55164U 23004AA  26168.09409123  .00000086  00000+0  18780-3 0  9991
2 55164  87.9130   5.8972 0002515  77.0191 283.1222 13.17650543167571
ONEWEB-0624             
1 55165U 23004AB  26167.96626939  .00000318  00000+0  84224-3 0  9997
2 55165  87.8945 350.6291 0001884  88.3345 271.8000 13.12927784168044
ONEWEB-0625             
1 55166U 23004AC  26168.08397611 -.00000020  00000+0 -85717-4 0  9995
2 55166  87.9132   5.8949 0001697  85.3100 274.8225 13.17649327167568
ONEWEB-0626             
1 55167U 23004AD  26168.07385272  .00000030  00000+0  44280-4 0  9994
2 55167  87.9130   5.8965 0001891 101.7819 258.3525 13.17649769167561
ONEWEB-0627             
1 55168U 23004AE  26168.06203097  .00000021  00000+0  21813-4 0  9995
2 55168  87.9130   5.8993 0002296  80.7913 279.3478 13.17648184167564
ONEWEB-0628             
1 55169U 23004AF  26168.02383911  .00000184  00000+0  47540-3 0  9990
2 55169  87.8947 350.6854 0002350  77.7901 282.3491 13.12445463168011
ONEWEB-0629             
1 55170U 23004AG  26168.03755699  .00000039  00000+0  67087-4 0  9997
2 55170  87.9131   5.9002 0001895  77.9663 282.1681 13.17647905167562
ONEWEB-0631             
1 55171U 23004AH  26168.17735971  .00000024  00000+0  27048-4 0  9991
2 55171  87.9169 335.4372 0002257 102.1765 257.9620 13.18685495169676
ONEWEB-0709             
1 55172U 23004AJ  26168.05175147  .00000452  00000+0  12392-2 0  9991
2 55172  87.8882  21.1063 0001759 114.1540 245.9772 13.11415036165850
ONEWEB-0710             
1 55173U 23004AK  26168.05190631  .00000037  00000+0  61553-4 0  9991
2 55173  87.9130   5.8927 0002002  87.3055 272.8306 13.17649674167565
ONEWEB-0711             
1 55174U 23004AL  26168.09922101 -.00000001  00000+0 -38909-4 0  9993
2 55174  87.8887  21.0842 0002544  81.1939 278.9477 13.11420753165826
ONEWEB-0713             
1 55175U 23004AM  26168.04158604  .00000606  00000+0  16747-2 0  9991
2 55175  87.8888  21.0973 0002189  83.1844 276.9533 13.11416861165809
